NORAD_CAT_ID,OBJECT_NAME,OBJECT_TYPE,EPOCH,MEAN_MOTION,ECCENTRICITY,INCLINATION,RA_OF_ASC_NODE,ARG_OF_PERICENTER,MEAN_ANOMALY,BSTAR,MEAN_MOTION_DOT,MEAN_MOTION_DDOT,TLE_LINE0,TLE_LINE1,TLE_LINE2,SEMIMAJOR_AXIS,PERIOD,APOGEE,PERIGEE,DECAYED
50839.0,STARLINK-3320,PAYLOAD,2023-02-11 18:36:26,15.08851494,0.0001211,53.2139,175.594,97.7961,262.3168,0.0012284,0.00019322,0.0,0 STARLINK-3320,1 50839U 22001AN  23042.77531098  .00019322  00000-0  12284-2 0  9997,2 50839  53.2139 175.5940 0001211  97.7961 262.3168 15.08851494 62163,6917.845,95.437,540.548,538.873,0.0
50839.0,STARLINK-3320,PAYLOAD,2023-02-12 15:16:27,15.08861138,0.000105,53.2136,171.7283,107.0017,253.109,0.0012067,0.0001898,0.0,0 STARLINK-3320,1 50839U 22001AN  23043.63643325  .00018980  00000-0  12067-2 0  9998,2 50839  53.2136 171.7283 0001050 107.0017 253.1090 15.08861138 62298,6917.816,95.436,540.407,538.954,0.0
50839.0,STARLINK-3320,PAYLOAD,2023-02-13 15:07:14,15.08858704,0.0002241,53.2146,167.2651,84.0018,276.1229,0.0013581,0.00021404,0.0,0 STARLINK-3320,1 50839U 22001AN  23044.63003391  .00021404  00000-0  13581-2 0  9999,2 50839  53.2146 167.2651 0002241  84.0018 276.1229 15.08858704 62447,6917.823,95.436,541.239,538.138,0.0
50839.0,STARLINK-3320,PAYLOAD,2023-02-14 00:39:33,15.08813552,0.0003482,53.2142,165.4782,77.8685,282.2697,-0.00060614,-9.917e-05,0.0,0 STARLINK-3320,1 50839U 22001AN  23045.02747543 -.00009917  00000-0 -60614-3 0  9994,2 50839  53.2142 165.4782 0003482  77.8685 282.2697 15.08813552 62502,6917.961,95.439,542.235,537.417,0.0
50839.0,STARLINK-3320,PAYLOAD,2023-02-14 14:58:01,15.08856772,0.0001137,53.213,162.8067,107.0982,253.0135,0.0017732,0.00028058,0.0,0 STARLINK-3320,1 50839U 22001AN  23045.62363353  .00028058  00000-0  17732-2 0  9990,2 50839  53.2130 162.8067 0001137 107.0982 253.0135 15.08856772 61319,6917.829,95.436,540.481,538.908,0.0
50839.0,STARLINK-3320,PAYLOAD,2023-02-14 18:08:48,15.08873018,0.0001124,53.2132,162.2123,94.6779,265.4341,0.0028562,0.00045503,0.0,0 STARLINK-3320,1 50839U 22001AN  23045.75611221  .00045503  00000-0  28562-2 0  9991,2 50839  53.2132 162.2123 0001124  94.6779 265.4341 15.08873018 62611,6917.779,95.435,540.422,538.867,0.0
50839.0,STARLINK-3320,PAYLOAD,2023-02-15 13:13:25,15.08856629,0.0001725,53.2144,158.6426,84.5332,275.5857,0.0016895,0.00026715,0.0,0 STARLINK-3320,1 50839U 22001AN  23046.55099349  .00026715  00000-0  16895-2 0  9991,2 50839  53.2144 158.6426 0001725  84.5332 275.5857 15.08856629 62735,6917.83,95.437,540.888,538.501,0.0
50839.0,STARLINK-3320,PAYLOAD,2023-02-15 19:34:57,15.08903321,0.0001082,53.2111,157.4511,136.0973,224.0105,0.0032919,0.00052585,0.0,0 STARLINK-3320,1 50839U 22001AN  23046.81594004  .00052585  00000-0  32919-2 0  9997,2 50839  53.2111 157.4511 0001082 136.0973 224.0105 15.08903321 62772,6917.687,95.434,540.3,538.803,0.0
50839.0,STARLINK-3320,PAYLOAD,2023-02-16 13:04:11,15.08889175,0.0001119,53.2132,154.1827,77.6982,282.4135,0.003088,0.00049268,0.0,0 STARLINK-3320,1 50839U 22001AN  23047.54457920  .00049268  00000-0  30880-2 0  9992,2 50839  53.2132 154.1827 0001119  77.6982 282.4135 15.08889175 62883,6917.73,95.434,540.369,538.821,0.0
50839.0,STARLINK-3320,PAYLOAD,2023-02-16 16:14:57,15.08902656,0.0001237,53.2133,153.5877,77.9254,282.1877,0.0037745,0.00060402,0.0,0 STARLINK-3320,1 50839U 22001AN  23047.67705542  .00060402  00000-0  37745-2 0  9992,2 50839  53.2133 153.5877 0001237  77.9254 282.1877 15.08902656 61629,6917.689,95.434,540.41,538.698,0.0
50839.0,STARLINK-3320,PAYLOAD,2023-02-17 12:54:59,15.08845921,0.0001304,53.2123,149.7219,94.9057,265.2084,0.0026402,0.00041988,0.0,0 STARLINK-3320,1 50839U 22001AN  23048.53819141  .00041988  00000-0  26402-2 0  9995,2 50839  53.2123 149.7219 0001304  94.9057 265.2084 15.08845921 63030,6917.862,95.437,540.629,538.825,0.0
50839.0,STARLINK-3320,PAYLOAD,2023-02-17 16:05:46,15.0883915,0.0001473,53.2124,149.1278,96.298,263.818,0.0017364,0.00027454,0.0,0 STARLINK-3320,1 50839U 22001AN  23048.67067214  .00027454  00000-0  17364-2 0  9995,2 50839  53.2124 149.1278 0001473  96.2980 263.8180 15.08839150 63057,6917.883,95.438,540.767,538.729,0.0
50839.0,STARLINK-3320,PAYLOAD,2023-02-18 12:45:48,15.08818349,0.0001773,53.2144,145.2603,105.0122,255.1066,0.0011541,0.00018116,0.0,0 STARLINK-3320,1 50839U 22001AN  23049.53181186  .00018116  00000-0  11541-2 0  9992,2 50839  53.2144 145.2603 0001773 105.0122 255.1066 15.08818349 61904,6917.947,95.439,541.038,538.585,0.0
50839.0,STARLINK-3320,PAYLOAD,2023-02-18 17:31:58,15.08831809,0.0001759,53.2145,144.3693,99.5588,260.5603,0.0014963,0.00023601,0.0,0 STARLINK-3320,1 50839U 22001AN  23049.73053353  .00023601  00000-0  14963-2 0  9994,2 50839  53.2145 144.3693 0001759  99.5588 260.5603 15.08831809 63210,6917.905,95.438,540.987,538.554,0.0
50839.0,STARLINK-3320,PAYLOAD,2023-02-19 12:36:35,15.08859503,0.0001838,53.2142,140.802,96.1328,263.9874,0.0012414,0.00019535,0.0,0 STARLINK-3320,1 50839U 22001AN  23050.52541089  .00019535  00000-0  12414-2 0  9991,2 50839  53.2142 140.8020 0001838  96.1328 263.9874 15.08859503 62054,6917.821,95.436,540.957,538.414,0.0
50839.0,STARLINK-3320,PAYLOAD,2023-02-20 09:16:35,15.08857516,0.0001833,53.2143,136.9351,94.5416,265.5786,0.00077569,0.00012085,0.0,0 STARLINK-3320,1 50839U 22001AN  23051.38652571  .00012085  00000-0  77569-3 0  9991,2 50839  53.2143 136.9351 0001833  94.5416 265.5786 15.08857516 63461,6917.827,95.436,540.96,538.424,0.0
50839.0,STARLINK-3320,PAYLOAD,2023-02-20 12:27:21,15.08861873,0.0001525,53.2147,136.3401,91.9528,268.1639,0.00056594,8.736e-05,0.0,0 STARLINK-3320,1 50839U 22001AN  23051.51900348  .00008736  00000-0  56594-3 0  9997,2 50839  53.2147 136.3401 0001525  91.9528 268.1639 15.08861873 62206,6917.814,95.436,540.733,538.624,0.0
50839.0,STARLINK-3320,PAYLOAD,2023-02-20 21:59:40,15.08841646,0.0002256,53.2141,134.5568,81.5942,278.5306,4.0663e-05,3.59e-06,0.0,0 STARLINK-3320,1 50839U 22001AN  23051.91644396  .00000359  00000-0  40663-4 0  9993,2 50839  53.2141 134.5568 0002256  81.5942 278.5306 15.08841646 63541,6917.875,95.437,541.301,538.18,0.0
50839.0,STARLINK-3320,PAYLOAD,2023-02-21 12:18:08,15.08851499,0.0001501,53.2145,131.8822,85.373,274.7433,0.00091483,0.00014306,0.0,0 STARLINK-3320,1 50839U 22001AN  23052.51260076  .00014306  00000-0  91483-3 0  9991,2 50839  53.2145 131.8822 0001501  85.3730 274.7433 15.08851499 62351,6917.845,95.437,540.749,538.672,0.0
50839.0,STARLINK-3320,PAYLOAD,2023-02-21 17:04:17,15.08868934,0.0001608,53.2142,130.9886,82.5038,277.6137,0.0015079,0.00023811,0.0,0 STARLINK-3320,1 50839U 22001AN  23052.71131711  .00023811  00000-0  15079-2 0  9993,2 50839  53.2142 130.9886 0001608  82.5038 277.6137 15.08868934 63666,6917.792,95.436,540.769,538.545,0.0
50839.0,STARLINK-3320,PAYLOAD,2023-02-21 21:50:28,15.08836739,0.00032,53.2135,130.0934,84.4829,275.6528,0.00041064,6.253e-05,0.0,0 STARLINK-3320,1 50839U 22001AN  23052.91004721  .00006253  00000-0  41064-3 0  9990,2 50839  53.2135 130.0934 0003200  84.4829 275.6528 15.08836739 63695,6917.89,95.438,541.969,537.542,0.0
50839.0,STARLINK-3320,PAYLOAD,2023-02-22 10:33:32,15.08853731,0.0001477,53.2137,127.7167,86.9015,273.2146,0.0015102,0.00023838,0.0,0 STARLINK-3320,1 50839U 22001AN  23053.43995857  .00023838  00000-0  15102-2 0  9998,2 50839  53.2137 127.7167 0001477  86.9015 273.2146 15.08853731 63776,6917.838,95.437,540.725,538.682,0.0
50839.0,STARLINK-3320,PAYLOAD,2023-02-22 13:44:18,15.08859479,0.0001484,53.2137,127.1216,87.4283,272.6879,0.0017561,0.00027786,0.0,0 STARLINK-3320,1 50839U 22001AN  23053.57243721  .00027786  00000-0  17561-2 0  9996,2 50839  53.2137 127.1216 0001484  87.4283 272.6879 15.08859479 62518,6917.821,95.436,540.712,538.659,0.0
50839.0,STARLINK-3320,PAYLOAD,2023-02-22 21:41:14,15.08842689,0.0001661,53.2136,125.6347,94.8773,265.2409,0.00045064,6.892e-05,0.0,0 STARLINK-3320,1 50839U 22001AN  23053.90363889  .00006892  00000-0  45064-3 0  9996,2 50839  53.2136 125.6347 0001661  94.8773 265.2409 15.08842689 62565,6917.872,95.437,540.886,538.588,0.0
50839.0,STARLINK-3320,PAYLOAD,2023-02-23 04:02:46,15.08833449,0.0001069,53.2135,124.4458,113.964,246.1464,0.00033216,5.002e-05,0.0,0 STARLINK-3320,1 50839U 22001AN  23054.16859931  .00005002  00000-0  33216-3 0  9991,2 50839  53.2135 124.4458 0001069 113.9640 246.1464 15.08833449 63881,6917.9,95.438,540.505,539.026,0.0
50839.0,STARLINK-3320,PAYLOAD,2023-02-23 11:59:42,15.0883788,0.0001527,53.2138,122.9597,96.2488,263.8679,0.00040672,6.191e-05,0.0,0 STARLINK-3320,1 50839U 22001AN  23054.49980254  .00006191  00000-0  40672-3 0  9994,2 50839  53.2138 122.9597 0001527  96.2488 263.8679 15.08837880 62654,6917.887,95.438,540.808,538.696,0.0
50839.0,STARLINK-3320,PAYLOAD,2023-02-23 21:32:01,15.0883726,0.0001462,53.2136,121.1754,99.2709,260.8449,0.00052938,8.147e-05,0.0,0 STARLINK-3320,1 50839U 22001AN  23054.89724469  .00008147  00000-0  52938-3 0  9993,2 50839  53.2136 121.1754 0001462  99.2709 260.8449 15.08837260 62716,6917.889,95.438,540.765,538.742,0.0
50839.0,STARLINK-3320,PAYLOAD,2023-02-24 11:50:29,15.08847166,0.0001229,53.2134,118.4979,103.7314,256.3815,0.00055309,8.527e-05,0.0,0 STARLINK-3320,1 50839U 22001AN  23055.49340216  .00008527  00000-0  55309-3 0  9991,2 50839  53.2134 118.4979 0001229 103.7314 256.3815 15.08847166 62809,6917.858,95.437,540.574,538.873,0.0
50839.0,STARLINK-3320,PAYLOAD,2023-02-24 16:36:39,15.08854506,0.0001155,53.2129,117.6027,110.8606,249.251,0.00073655,0.00011458,0.0,0 STARLINK-3320,1 50839U 22001AN  23055.69211920  .00011458  00000-0  73655-3 0  9993,2 50839  53.2129 117.6027 0001155 110.8606 249.2510 15.08854506 62831,6917.836,95.437,540.5,538.902,0.0
50839.0,STARLINK-3320,PAYLOAD,2023-02-25 03:44:22,15.08822983,0.0001006,53.2124,115.5242,86.8442,273.2665,-7.9419e-05,-1.551e-05,0.0,0 STARLINK-3320,1 50839U 22001AN  23056.15581051 -.00001551  00000-0 -79419-4 0  9990,2 50839  53.2124 115.5242 0001006  86.8442 273.2665 15.08822983 64189,6917.932,95.439,540.493,539.101,0.0
